SL-3 R/B                
1 19046U 88032B   26090.25908710  .00005928  00000+0  27471-3 0  9997
2 19046  97.5211  73.4409 0026623 155.0220 205.2310 15.20148548 55380
SL-16 R/B               
1 19120U 88039B   26090.26000670  .00000108  00000+0  73800-4 0  9999
2 19120  71.0171  22.9362 0023731 303.4970  56.3888 14.19620038961444
COSMOS 1953             
1 19210U 88050A   26090.16108971  .00008988  00000+0  31871-3 0  9999
2 19210  82.5073 136.6473 0012214  55.6435 304.5958 15.28860160 41060
SL-8 R/B                
1 19257U 88053B   26090.19954715  .00000418  00000+0  14395-3 0  9993
2 19257  74.0459  72.8130 0021403 249.2383 122.4954 14.38931288979691
COSMOS 1975             
1 19573U 88093A   26090.00517600  .00009697  00000+0  34897-3 0  9993
2 19573  82.5156  96.2776 0013389  95.8935 264.3832 15.28368127 22661
SL-14 R/B               
1 19574U 88093B   26090.22445020  .00000717  00000+0  79652-4 0  9997
2 19574  82.5342  21.8320 0019912 330.8750 142.3690 14.85682652  4215
SL-16 R/B               
1 19650U 88102B   26090.23663505  .00000024  00000+0  36200-4 0  9997
2 19650  70.9970 106.1594 0015219 329.6930  30.3311 14.16153535929949
INTERCOSMOS 24          
1 20261U 89080A   26090.01095090  .00000612  00000+0  18090-3 0  9996
2 20261  82.6013  90.5155 1186912 243.2874 104.2023 12.59585250669483
SL-14 R/B               
1 20262U 89080C   26090.24073664  .00000483  00000+0  13659-3 0  9997
2 20262  82.5952 159.3575 1230906 135.5133 235.1746 12.50514645662849
DELTA 1 R/B             
1 20323U 89089B   26090.14113131  .00000472  00000+0  12516-3 0  9996
2 20323  97.0689 294.1650 0070389  55.5283 305.2538 14.50681126898840
ARIANE 40 R/B           
1 20443U 90005H   26090.14720061  .00000360  00000+0  12787-3 0  9991
2 20443  98.3038 150.1646 0011085 136.1755 224.0315 14.39884795895896
DELTA 2 R/B(1)          
1 20453U 90008B   26090.23460398  .00074414  00000+0  79855-3 0  9999
2 20453  35.6038  33.1588 0077115 100.9790 259.9633 15.58885003929499
